{
  "type": "FeatureCollection",
  "features": [
    {
      "type": "Feature",
      "properties": {
        "norad_id": 56564,
        "name": "BEIDOU-3 G4 (C62)",
        "group": "beidou",
        "lat": 0.7906684737402476,
        "lon": 51.98683237722345,
        "alt_km": 35793.5149959028,
        "timestamp": "2025-12-09T11:33:55.065255+00:00",
        "meta_object_name": "BEIDOU-3 G4 (C62)",
        "meta_object_id": "2023-066A",
        "meta_epoch": "2025-12-09T05:16:38.690400",
        "meta_mean_motion": 1.00271218,
        "meta_eccentricity": 0.000303,
        "meta_inclination": 0.8226,
        "meta_ra_of_asc_node": 301.7802,
        "meta_arg_of_pericenter": 235.5487,
        "meta_mean_anomaly": 140.1135,
        "meta_ephemeris_type": 0,
        "meta_classification_type": "U",
        "meta_norad_cat_id": 56564,
        "meta_element_set_no": 999,
        "meta_rev_at_epoch": 949,
        "meta_bstar": 0,
        "meta_mean_motion_dot": -1.09e-06,
        "meta_mean_motion_ddot": 0,
        "tle_line1": "1 56564U 23066A   25343.21989225 -.00000109  00000+0  00000+0 0  9997",
        "tle_line2": "2 56564   0.8226 301.7802 0003030 235.5487 140.1135  1.00271218  9496"
      },
      "geometry": {
        "type": "Point",
        "coordinates": [
          51.98683237722345,
          0.7906684737402476
        ]
      }
    },
    {
      "type": "Feature",
      "properties": {
        "norad_id": 58654,
        "name": "BEIDOU-3 M28 (C50)",
        "group": "beidou",
        "lat": 1.6032396056511298,
        "lon": -112.37683675483642,
        "alt_km": 21528.270835063227,
        "timestamp": "2025-12-09T11:33:55.065266+00:00",
        "meta_object_name": "BEIDOU-3 M28 (C50)",
        "meta_object_id": "2023-207A",
        "meta_epoch": "2025-12-07T14:31:49.044864",
        "meta_mean_motion": 1.86229593,
        "meta_eccentricity": 0.0002234,
        "meta_inclination": 55.5801,
        "meta_ra_of_asc_node": 68.7753,
        "meta_arg_of_pericenter": 268.0479,
        "meta_mean_anomaly": 91.9457,
        "meta_ephemeris_type": 0,
        "meta_classification_type": "U",
        "meta_norad_cat_id": 58654,
        "meta_element_set_no": 999,
        "meta_rev_at_epoch": 1327,
        "meta_bstar": 0,
        "meta_mean_motion_dot": -4.6e-07,
        "meta_mean_motion_ddot": 0,
        "tle_line1": "1 58654U 23207A   25341.60542876 -.00000046  00000+0  00000+0 0  9994",
        "tle_line2": "2 58654  55.5801  68.7753 0002234 268.0479  91.9457  1.86229593 13270"
      },
      "geometry": {
        "type": "Point",
        "coordinates": [
          -112.37683675483642,
          1.6032396056511298
        ]
      }
    },
    {
      "type": "Feature",
      "properties": {
        "norad_id": 58655,
        "name": "BEIDOU-3 M26 (C48)",
        "group": "beidou",
        "lat": -36.61313361690368,
        "lon": 38.13115465231157,
        "alt_km": 21527.40099252509,
        "timestamp": "2025-12-09T11:33:55.065277+00:00",
        "meta_object_name": "BEIDOU-3 M26 (C48)",
        "meta_object_id": "2023-207B",
        "meta_epoch": "2025-12-08T11:26:54.595392",
        "meta_mean_motion": 1.8623113,
        "meta_eccentricity": 0.00036549,
        "meta_inclination": 55.583,
        "meta_ra_of_asc_node": 68.7321,
        "meta_arg_of_pericenter": 253.8899,
        "meta_mean_anomaly": 106.0912,
        "meta_ephemeris_type": 0,
        "meta_classification_type": "U",
        "meta_norad_cat_id": 58655,
        "meta_element_set_no": 999,
        "meta_rev_at_epoch": 1327,
        "meta_bstar": 0,
        "meta_mean_motion_dot": -4.7e-07,
        "meta_mean_motion_ddot": 0,
        "tle_line1": "1 58655U 23207B   25342.47702078 -.00000047  00000+0  00000+0 0  9994",
        "tle_line2": "2 58655  55.5830  68.7321 0003654 253.8899 106.0912  1.86231130 13273"
      },
      "geometry": {
        "type": "Point",
        "coordinates": [
          38.13115465231157,
          -36.61313361690368
        ]
      }
    },
    {
      "type": "Feature",
      "properties": {
        "norad_id": 61186,
        "name": "BEIDOU-3 M25 (C47)",
        "group": "beidou",
        "lat": 50.322383847733434,
        "lon": 7.598412171781196,
        "alt_km": 21532.92380382388,
        "timestamp": "2025-12-09T11:33:55.065289+00:00",
        "meta_object_name": "BEIDOU-3 M25 (C47)",
        "meta_object_id": "2024-168B",
        "meta_epoch": "2025-12-08T20:08:08.310912",
        "meta_mean_motion": 1.8622988,
        "meta_eccentricity": 0.00054406,
        "meta_inclination": 54.6453,
        "meta_ra_of_asc_node": 308.8544,
        "meta_arg_of_pericenter": 295.846,
        "meta_mean_anomaly": 63.7287,
        "meta_ephemeris_type": 0,
        "meta_classification_type": "U",
        "meta_norad_cat_id": 61186,
        "meta_element_set_no": 999,
        "meta_rev_at_epoch": 823,
        "meta_bstar": 0,
        "meta_mean_motion_dot": -7.5e-07,
        "meta_mean_motion_ddot": 0,
        "tle_line1": "1 61186U 24168B   25342.83898508 -.00000075  00000+0  00000+0 0  9999",
        "tle_line2": "2 61186  54.6453 308.8544 0005440 295.8460  63.7287  1.86229880  8230"
      },
      "geometry": {
        "type": "Point",
        "coordinates": [
          7.598412171781196,
          50.322383847733434
        ]
      }
    },
    {
      "type": "Feature",
      "properties": {
        "norad_id": 61187,
        "name": "BEIDOU-3 M27 (C49)",
        "group": "beidou",
        "lat": -20.62073758531397,
        "lon": 144.28306247823394,
        "alt_km": 21534.999415311646,
        "timestamp": "2025-12-09T11:33:55.065300+00:00",
        "meta_object_name": "BEIDOU-3 M27 (C49)",
        "meta_object_id": "2024-168C",
        "meta_epoch": "2025-12-09T05:48:09.836064",
        "meta_mean_motion": 1.8623006,
        "meta_eccentricity": 0.0002331,
        "meta_inclination": 54.6404,
        "meta_ra_of_asc_node": 308.8241,
        "meta_arg_of_pericenter": 334.1431,
        "meta_mean_anomaly": 70.4249,
        "meta_ephemeris_type": 0,
        "meta_classification_type": "U",
        "meta_norad_cat_id": 61187,
        "meta_element_set_no": 999,
        "meta_rev_at_epoch": 572,
        "meta_bstar": 0,
        "meta_mean_motion_dot": -7.6e-07,
        "meta_mean_motion_ddot": 0,
        "tle_line1": "1 61187U 24168C   25343.24178051 -.00000076  00000+0  00000+0 0  9991",
        "tle_line2": "2 61187  54.6404 308.8241 0002331 334.1431  70.4249  1.86230060  5728"
      },
      "geometry": {
        "type": "Point",
        "coordinates": [
          144.28306247823394,
          -20.62073758531397
        ]
      }
    }
  ]
}